num1,city,gu,roadname,where,address,latitude,longitude
대전-중구-1,대전광역시,중구,보문로 258,중구청 맞은편 승강장,대전광역시 중구 보문로 258 중구청 맞은편 승강장,36.3254294,127.4222039
대전-중구-2,대전광역시,중구,중앙로 118,대전도시공사 본사 앞 승강장,대전광역시 중구 중앙로 118 대전도시공사 본사 앞 승강장,36.3275191,127.4228558
대전-중구-3,대전광역시,중구,보문로 193,앞 승강장,대전광역시 중구 보문로 193 앞 승강장,36.31999213,127.4245191
대전-중구-4,대전광역시,중구,대흥로 64,대전성모병원 정문 앞,대전광역시 중구 대흥로 64 대전성모병원 정문 앞,36.32367026,127.4204233
대전-중구-5,대전광역시,중구,중앙로 156,푸마매장 앞 승강장,대전광역시 중구 중앙로 156 푸마매장 앞 승강장,36.32896333056044,127.42678779974466
대전-중구-6,대전광역시,중구,중앙로 160,유니클로 앞 승강장,대전광역시 중구 중앙로 160 유니클로 앞 승강장,36.32921313056038,127.42747489974354
대전-중구-7,대전광역시,중구,중앙로 170,앞 승강장,대전광역시 중구 중앙로 170 앞 승강장,36.32943407201418,127.42808209532345
대전-중구-8,대전광역시,중구,보문로 170,앞 승강장,대전광역시 중구 보문로 170 앞 승강장,36.31817131914979,127.42551272985504
대전-중구-9,대전광역시,중구,보문로 192-2,앞 승강장,대전광역시 중구 보문로 192-2 앞 승강장,36.320031732458816,127.4243914231509
대전-중구-10,대전광역시,중구,중앙로 134-1,중부우리안과 앞 승강장,대전광역시 중구 중앙로 134-1 중부우리안과 앞 승강장,36.32816310503001,127.42463152943989
대전-중구-11,대전광역시,중구,대종로 411,하나로마트 앞 승강장,대전광역시 중구 대종로 411 하나로마트 앞 승강장,36.322027901554186,127.42967194190209
대전-중구-12,대전광역시,중구,대종로 464,송희플라워플라자 앞 승강장,대전광역시 중구 대종로 464 송희플라워플라자 앞 승강장,36.32608045103026,127.42742226721033
대전-중구-13,대전광역시,중구,충무로 69,테미고개 승강장,대전광역시 중구 충무로 69 테미고개 승강장,36.317362017357645,127.42501836318205
대전-중구-14,대전광역시,중구,중앙로 76,하나은행 앞,대전광역시 중구 중앙로 76 하나은행 앞,36.32518715307404,127.42011613609793
대전-중구-15,대전광역시,중구,중앙로 100,중구청 후문 승강장,대전광역시 중구 중앙로 100 중구청 후문 승강장,36.325800694399014,127.42093019128255
대전-중구-16,대전광역시,중구,동서대로 1399-2,순풍한의원 앞 승강장,대전광역시 중구 동서대로 1399-2 순풍한의원 앞 승강장,36.333674902254984,127.41221811265008
대전-중구-17,대전광역시,중구,동서대로 1365,편의점 앞 승강장,대전광역시 중구 동서대로 1365 편의점 앞 승강장,36.33130701360482,127.41000484339372
대전-중구-18,대전광역시,중구,목중로 29,대전선병원 앞 택시승강장,대전광역시 중구 목중로 29 대전선병원 앞 택시승강장,36.336332611464755,127.41086878280082
대전-중구-19,대전광역시,중구,대종로 660,앞 승강장,대전광역시 중구 대종로 660 앞 승강장,36.33910105764378,127.41295067217196
대전-중구-20,대전광역시,중구,중앙로 167,나이키 앞 승강장,대전광역시 중구 중앙로 167 나이키 앞 승강장,36.32946362692541,127.42788178459676
대전-중구-21,대전광역시,중구,중앙로 153,대전중앙약국 앞 승강장,대전광역시 중구 중앙로 153 대전중앙약국 앞 승강장,36.32901018573533,127.42666311303684
대전-중구-22,대전광역시,중구,중앙로 165,성모피부과의원 앞 승강장,대전광역시 중구 중앙로 165 성모피부과의원 앞 승강장,36.32946362692541,127.42788178459676
대전-중구-23,대전광역시,중구,중앙로 139,롯데리아 앞,대전광역시 중구 중앙로 139 롯데리아 앞,36.32849691127856,127.4250342806111
대전-중구-24,대전광역시,중구,중앙로 133-1,파리바게트 앞 승강장,대전광역시 중구 중앙로 133-1 파리바게트 앞 승강장,36.328260398598076,127.42464096711043
대전-중구-25,대전광역시,중구,대종로 562,앞 승강장,대전광역시 중구 대종로 562 앞 승강장,36.332826810144404,127.4207764155499
대전-중구-26,대전광역시,중구,중앙로 119,국민연금공단 앞 승강장,대전광역시 중구 중앙로 119 국민연금공단 앞 승강장,36.32749544937568,127.42281924537268
대전-중구-27,대전광역시,중구,보문로 320-1,성진빌딩 앞 승강장,대전광역시 중구 보문로 320-1 성진빌딩 앞 승강장,36.330794746780704,127.41946907758062
대전-중구-28,대전광역시,중구,중앙로 63,앞 승강장,대전광역시 중구 중앙로 63 앞 승강장,36.32430836186365,127.41887302626198
대전-중구-29,대전광역시,중구,대종로 290,앞 택시승강장,대전광역시 중구 대종로 290 앞 택시승강장,36.31240371425437,127.43652723342738
대전-중구-30,대전광역시,중구,대종로 303,앞,대전광역시 중구 대종로 303 앞,36.31298217793302,127.43506954533872
대전-중구-31,대전광역시,중구,대종로 297,승강장,대전광역시 중구 대종로 297 승강장,36.31269893967844,127.43563808191024
대전-중구-32,대전광역시,중구,보문로 92,앞 승강장,대전광역시 중구 보문로 92 앞 승강장,36.31352703163131,127.43093922877763
대전-중구-33,대전광역시,중구,대종로 227,앞 승강장,대전광역시 중구 대종로 227 앞 승강장,36.309448616908504,127.44220271855691
대전-중구-34,대전광역시,중구,대종로 143,앞 승강장,대전광역시 중구 대종로 143 앞 승강장,36.30469232496677,127.449417303579
대전-중구-35,대전광역시,중구,대종로 66,솔빛아파트 앞 승강장,대전광역시 중구 대종로 66 솔빛아파트 앞 승강장,36.29900284874805,127.45451030189955
대전-중구-36,대전광역시,중구,문화로 117,앞 승강장,대전광역시 중구 문화로 117 앞 승강장,36.31266565471921,127.39869206451625
대전-중구-37,대전광역시,중구,계백로 1588,엘림빌딩 앞 승강장,대전광역시 중구 계백로 1588 엘림빌딩 앞 승강장,36.318108900551074,127.39648817867561
대전-중구-38,대전광역시,중구,태평로 71,삼부프라자 앞 승강장,대전광역시 중구 태평로 71 삼부프라자 앞 승강장,36.32331207403822,127.39383286602468
대전-중구-39,대전광역시,중구,평촌로 93,쌍용예가아파트 109동 옆 승강장,대전광역시 중구 평촌로 93 쌍용예가아파트 109동 옆 승강장,36.32270996358286,127.39822203586475
대전-중구-40,대전광역시,중구,중앙로 19,앞 승강장,대전광역시 중구 중앙로 19 앞 승강장,36.32278026678352,127.41465083127372
대전-중구-41,대전광역시,중구,계룡로 865,앞 승강장,대전광역시 중구 계룡로 865 앞 승강장,36.32407012121527,127.4106573996033
대전-중구-42,대전광역시,중구,선화로 12-1,앞 승강장,대전광역시 중구 선화로 12-1 앞 승강장,36.325153649775736,127.41109073589259
대전-중구-43,대전광역시,중구,동서대로 1330,앞 승강장,대전광역시 중구 동서대로 1330 앞 승강장,36.32907170389715,127.40695487386132
대전-중구-44,대전광역시,중구,동서대로 1329,앞 승강장,대전광역시 중구 동서대로 1329 앞 승강장,36.329219555027116,127.4069378230131
대전-중구-45,대전광역시,중구,동서대로 1304번길 33,앞 승강장,대전광역시 중구 동서대로 1304번길 33 앞 승강장,36.32733433056138,127.40649649975575
대전-중구-46,대전광역시,중구,계룡로 832,앞 승강장,대전광역시 중구 계룡로 832 앞 승강장,36.32615133056158,127.40794039975434
대전-중구-47,대전광역시,중구,계룡로 846,앞 승강장,대전광역시 중구 계룡로 846 앞 승강장,36.32496703056278,127.40938259975682
대전-중구-48,대전광역시,중구,계백로 1719,앞 승강장,대전광역시 중구 계백로 1719 앞 승강장,36.321918930564195,127.4104844997559
대전-중구-49,대전광역시,중구,계백로 1685,앞 승강장,대전광역시 중구 계백로 1685 앞 승강장,36.32089973056516,127.40687659975437
대전-중구-50,대전광역시,중구,계맥로 1679,삼성디지털프라자 앞,대전광역시 중구 계맥로 1679 삼성디지털프라자 앞,36.320640030565166,127.40645479975723
대전-중구-51,대전광역시,중구,동서대로 1299,앞 승강장,대전광역시 중구 동서대로 1299 앞 승강장,36.328303330560516,127.40390649975802
대전-중구-52,대전광역시,중구,오류로 19,서대전역 앞,대전광역시 중구 오류로 19 서대전역 앞,36.32271443056401,127.40454039975519
대전-중구-53,대전광역시,중구,계백로 1686번길 16,한신아파트 101동 앞,대전광역시 중구 계백로 1686번길 16 한신아파트 101동 앞,36.320640030565166,127.40645479975723
대전-중구-54,대전광역시,중구,계백로 1686번길 16,한신아파트 103동 앞,대전광역시 중구 계백로 1686번길 16 한신아파트 103동 앞,36.320640030565166,127.40645479975723
대전-중구-55,대전광역시,중구,게백로1712,기동교봉사회관 앞 승강장,대전광역시 중구 게백로1712 기동교봉사회관 앞 승강장,36.321490030564185,127.40952049975432
대전-중구-56,대전광역시,중구,서문로 32,한밭우성아파트 앞 승강장,대전광역시 중구 서문로 32 한밭우성아파트 앞 승강장,36.30995171434806,127.40818273328257
대전-중구-57,대전광역시,중구,계룡로 910,KT문화빌딩 앞 승강장,대전광역시 중구 계룡로 910 KT문화빌딩 앞 승강장,36.32126535053322,127.41388109060814
대전-중구-58,대전광역시,중구,계룡로 942,대전중앙교회 앞 승강장,대전광역시 중구 계룡로 942 대전중앙교회 앞 승강장,36.318952154299616,127.41669737049487
대전-중구-59,대전광역시,중구,문화로 178,앞 승강장,대전광역시 중구 문화로 178 앞 승강장,36.3144618952865,127.4048033182279
대전-중구-60,대전광역시,중구,문화로 175,앞 승강장,대전광역시 중구 문화로 175 앞 승강장,36.314548633229776,127.40473695520936
대전-중구-61,대전광역시,중구,계룡로 911,투썸플레이스 앞,대전광역시 중구 계룡로 911 투썸플레이스 앞,36.320938817786754,127.41448962507692
대전-중구-62,대전광역시,중구,중앙로 16번길 5,대전병무청 앞 승강장,대전광역시 중구 중앙로 16번길 5 대전병무청 앞 승강장,36.32278026678352,127.41465083127372
대전-중구-63,대전광역시,중구,문화로 218번길 6,앞 승강장,대전광역시 중구 문화로 218번길 6 앞 승강장,36.31593635082945,127.4090023212021
대전-중구-64,대전광역시,중구,서문로 96,센트럴파크2단지 앞 승강장,대전광역시 중구 서문로 96 센트럴파크2단지 앞 승강장,36.316262590015675,127.40952516620807
대전-중구-65,대전광역시,중구,문화로 266,충남대학교병원 응급실 앞 승강장,대전광역시 중구 문화로 266 충남대학교병원 응급실 앞 승강장,36.31764736293154,127.41355016372378
대전-중구-66,대전광역시,중구,문화로 269,중앙유치원 앞 승강장,대전광역시 중구 문화로 269 중앙유치원 앞 승강장,36.317744965808224,127.4134705023029
대전-중구-67,대전광역시,중구,산성로 63,중구보건소 앞 승강장,대전광역시 중구 산성로 63 중구보건소 앞 승강장,36.308381680583246,127.39590893047796
대전-중구-68,대전광역시,중구,대둔산로 414,산성전통시장 입구 앞 승강장,대전광역시 중구 대둔산로 414 산성전통시장 입구 앞 승강장,36.30615877993672,127.38672768497797
대전-중구-69,대전광역시,중구,대둔산로 184번길 8,뿌리공원 입구 승강장,대전광역시 중구 대둔산로 184번길 8 뿌리공원 입구 승강장,36.286456254232164,127.37854915236163
대전-중구-70,대전광역시,중구,대둔산로 206,근영빌딩 앞 승강장,대전광역시 중구 대둔산로 206 근영빌딩 앞 승강장,36.28857492146139,127.37997532031376
대전-중구-71,대전광역시,중구,대둔산로 381,한빛프라자 앞 승강장,대전광역시 중구 대둔산로 381 한빛프라자 앞 승강장,36.30328130000012,127.38623039999976
대전-중구-72,대전광역시,중구,대둔산로 380,앞 승강장,대전광역시 중구 대둔산로 380 앞 승강장,36.303247877237396,127.3861967117324
대전-중구-73,대전광역시,중구,유등천동로 340,서남부터미널 앞 승강장,대전광역시 중구 유등천동로 340 서남부터미널 앞 승강장,36.31291059101155,127.38778990465659
대전-중구-74,대전광역시,중구,유등천동로 370,강변빌라 앞 승강장,대전광역시 중구 유등천동로 370 강변빌라 앞 승강장,36.314739700247394,127.3873223738391
대전-중구-75,대전광역시,중구,대둔산로 125,한빛고등학교 입구 승강장,대전광역시 중구 대둔산로 125 한빛고등학교 입구 승강장,36.28256808608727,127.37583674335752
대전-중구-76,대전광역시,중구,사정동 138,,대전광역시 중구 사정동 138,36.29268305316266,127.39809164979732
대전-중구-77,대전광역시,중구,대둔산로 130,LPG충전소 앞 승강장,대전광역시 중구 대둔산로 130 LPG충전소 앞 승강장,36.28314405209685,127.376088834607
대전-중구-78,대전광역시,중구, 보문로 258,중구청 맞은편 승강장,대전광역시 중구 보문로 258 중구청 맞은편 승강장,36.32548413,127.4221437
대전-중구-79,대전광역시,중구, 중앙로 118 ,대전도시공사 본사 앞 승강장,대전광역시 중구 중앙로 118 대전도시공사 본사 앞 승강장,36.32751733,127.4228409
대전-중구-80,대전광역시,중구, 보문로 193 ,앞 승강장,대전광역시 중구 보문로 193 앞 승강장,36.32016003,127.424335
대전-중구-81,대전광역시,중구, 대흥로 64  , 대전성모병원 정문 앞,대전광역시 중구 대흥로 64  대전성모병원 정문 앞,36.32376803,127.420372
대전-중구-82,대전광역시,중구, 중앙로 156 ,푸마매장 앞 승강장,대전광역시 중구 중앙로 156 푸마매장 앞 승강장,36.32895803,127.4267583
대전-중구-83,대전광역시,중구, 중앙로 160 ,앞 승강장,대전광역시 중구 중앙로 160 앞 승강장,36.32920033,127.4274096
대전-중구-84,대전광역시,중구, 중앙로 170  ,앞 승강장,대전광역시 중구 중앙로 170  앞 승강장,36.32944253,127.428061
대전-중구-85,대전광역시,중구, 보문로 170,앞 승강장,대전광역시 중구 보문로 170 앞 승강장,36.31815533,127.4254893
대전-중구-86,대전광역시,중구, 보문로 192-2 ,앞 승강장,대전광역시 중구 보문로 192-2 앞 승강장,36.32298293,127.4242434
대전-중구-87,대전광역시,중구, 대흥로 110 ,대전고등학교 정문 앞 승강장,대전광역시 중구 대흥로 110 대전고등학교 정문 앞 승강장,36.31998323,127.4243762
대전-중구-88,대전광역시,중구, 대종로 471 ,대흥동성당 앞 승강장,대전광역시 중구 대종로 471 대흥동성당 앞 승강장,36.32708013,127.4267387
대전-중구-89,대전광역시,중구, 중앙로 136,중부우리안과 앞 승강장,대전광역시 중구 중앙로 136 중부우리안과 앞 승강장,36.32816363,127.4246167
대전-중구-90,대전광역시,중구, 중앙로 126 , 메가박스 앞 승강장,대전광역시 중구 중앙로 126 메가박스 앞 승강장,36.32790823,127.423936
대전-중구-91,대전광역시,중구, 대종로 411 ,하나로마트 앞 승강장,대전광역시 중구 대종로 411 하나로마트 앞 승강장,36.32212583,127.4296641
대전-중구-92,대전광역시,중구, 대종로 464 ,송희플라워플라자 앞 승강장,대전광역시 중구 대종로 464 송희플라워플라자 앞 승강장,36.32612743,127.4273994
대전-중구-93,대전광역시,중구, 충무로 70 , 테미고개 승강장,대전광역시 중구 충무로 70 테미고개 승강장,36.31709623,127.4252876
대전-중구-94,대전광역시,중구, 충무로 69 , 테미고개 승강장,대전광역시 중구 충무로 69 테미고개 승강장,36.31731003,127.42507
대전-중구-95,대전광역시,중구, 보문로 238  , kt 대전지점 앞 승강장,대전광역시 중구 보문로 238  kt 대전지점 앞 승강장,36.32350763,127.4227418
대전-중구-96,대전광역시,중구, 보문로 235 ,백제동물병원 앞 승강장,대전광역시 중구 보문로 235 백제동물병원 앞 승강장,36.32378973,127.4226546
대전-중구-97,대전광역시,중구, 중앙로 76 ,하나은행 앞,대전광역시 중구 중앙로 76 하나은행 앞,36.32515823,127.4200702
대전-중구-98,대전광역시,중구, 중앙로 100 ,중구청 후문 승강장,대전광역시 중구 중앙로 100 중구청 후문 승강장,36.32582143,127.4209448
대전-중구-99,대전광역시,중구, 목동로 37 ,목양마을아파트 정문 앞 승강장,대전광역시 중구 목동로 37 목양마을아파트 정문 앞 승강장,36.33398763,127.4076724
대전-중구-100,대전광역시,중구, 동서대로 1399-2, 순풍한의원 앞 승강장,대전광역시 중구 동서대로 1399-2 순풍한의원 앞 승강장,36.33366313,127.4121795
대전-중구-101,대전광역시,중구, 동서대로 1388 , 금호한사랑아파트 정문 앞 승강장,대전광역시 중구 동서대로 1388 금호한사랑아파트 정문 앞 승강장,36.33310843,127.4119055
대전-중구-102,대전광역시,중구, 목중로 29 , 대전선병원 앞 택시승강장,대전광역시 중구 목중로 29 대전선병원 앞 택시승강장,36.33634873,127.4108585
대전-중구-103,대전광역시,중구, 대종로 660 ,앞 승강장,대전광역시 중구 대종로 660 앞 승강장,36.33912863,127.412874
대전-중구-104,대전광역시,중구, 중촌동 102-3 ,중촌동 솔밭공원 앞 승강장,대전광역시 중구 중촌동 102-3 중촌동 솔밭공원 앞 승강장,36.33878873,127.4133033
대전-중구-105,대전광역시,중구, 대종로 701 , 시영아파트 상가 앞 승강장,대전광역시 중구 대종로 701 시영아파트 상가 앞 승강장,36.34114903,127.4101546
대전-중구-106,대전광역시,중구, 중앙로 167 ,나이키 앞 승강장,대전광역시 중구 중앙로 167 나이키 앞 승강장,36.32948063,127.4278718
대전-중구-107,대전광역시,중구, 중앙로 157 ,앞 승강장,대전광역시 중구 중앙로 157 앞 승강장,36.32952003,127.428016
대전-중구-108,대전광역시,중구, 중앙로 153 ,대전중앙약국 앞 승강장,대전광역시 중구 중앙로 153 대전중앙약국 앞 승강장,36.32903403,127.4101546
대전-중구-109,대전광역시,중구, 중앙로 165 ,성모피부과의원 앞 승강장,대전광역시 중구 중앙로 165 성모피부과의원 앞 승강장,36.32952223,127.4279838
대전-중구-110,대전광역시,중구, 중앙로 139 ,롯데리아 앞,대전광역시 중구 중앙로 139 롯데리아 앞,36.32846853,127.4251898
대전-중구-111,대전광역시,중구, 중앙로 133-1 ,파리바게트 앞 승강장,대전광역시 중구 중앙로 133-1 파리바게트 앞 승강장,36.32827563,127.4246855
대전-중구-112,대전광역시,중구, 중앙로 119 ,국민연금공단 앞 승강장,대전광역시 중구 중앙로 119 국민연금공단 앞 승강장,36.32761933,127.4229149
대전-중구-113,대전광역시,중구, 보문로 320-1 ,성진빌딩 앞 승강장,대전광역시 중구 보문로 320-1 성진빌딩 앞 승강장,36.33077453,127.4194384
대전-중구-114,대전광역시,중구, 보문로 293 , LSI정보기술 앞 승강장,대전광역시 중구 보문로 293 LSI정보기술 앞 승강장,36.32866133,127.4206143
대전-중구-115,대전광역시,중구, 중앙로 63 ,앞 승강장,대전광역시 중구 중앙로 63 앞 승강장,36.32428433,127.4188574
대전-중구-116,대전광역시,중구, 중앙로 45 ,센트럴뷰 105동 앞 승강장,대전광역시 중구 중앙로 45 센트럴뷰 105동 앞 승강장,36.32389003,127.4183315
대전-중구-117,대전광역시,중구, 보문로 45 ,앞 승강장,대전광역시 중구 보문로 45 앞 승강장,36.31355573,127.435864
대전-중구-118,대전광역시,중구, 대종로 290 , 앞 택시승강장,대전광역시 중구 대종로 290 앞 택시승강장,36.31237583,127.4366271
대전-중구-119,대전광역시,중구, 대종로 308 ,앞 승강장,대전광역시 중구 대종로 308 앞,36.31298943,127.4350069
대전-중구-120,대전광역시,중구, 대종로 297 ,승강장,대전광역시 중구 대종로 297 승강장,36.31268143,127.4356199
대전-중구-121,대전광역시,중구, 대종로 373 ,한밭운동장 앞 승강장,대전광역시 중구 대종로 373 한밭운동장 앞 승강장,36.31704123,127.4326275
대전-중구-122,대전광역시,중구, 보문로 92, 앞 승강장,대전광역시 중구 보문로 92 앞 승강장,36.31350103,127.4308489
대전-중구-123,대전광역시,중구, 대종로 227 ,앞 승강장,대전광역시 중구 대종로 227 앞 승강장,36.30942063,127.4421926
대전-중구-124,대전광역시,중구, 대종로 143 ,앞 승강장,대전광역시 중구 대종로 143 앞 승강장,36.30471703,127.4493927
대전-중구-125,대전광역시,중구, 대종로 66 , 솔빛아파트 앞 승강장,대전광역시 중구 대종로 66 솔빛아파트 앞 승강장,36.29899723,127.4545231
대전-중구-126,대전광역시,중구, 유천로 45 ,앞 승강장,대전광역시 중구 유천로 45 앞 승강장,36.31667843,127.3980529
대전-중구-127,대전광역시,중구, 문화로 117 ,앞 승강장,대전광역시 중구 문화로 117 앞 승강장,36.31261413,127.3986231
대전-중구-128,대전광역시,중구, 계백로 1552 ,자연나라수족관 앞 승강장,대전광역시 중구 계백로 1552 자연나라수족관 앞 승강장,36.31711533,127.3926373
대전-중구-129,대전광역시,중구, 계백로 1588 ,엘림빌딩 앞 승강장,대전광역시 중구 계백로 1588 엘림빌딩 앞 승강장,36.31812533,127.3965373
대전-중구-130,대전광역시,중구, 태평로 71  ,삼부프라자 앞 승강장,대전광역시 중구 태평로 71 삼부프라자 앞 승강장,36.32330643,127.3938353
대전-중구-131,대전광역시,중구, 태평로 80,삼부1단지아파트 앞 승강장,대전광역시 중구 태평로 80 삼부1단지아파트 앞 승강장,36.32274653,127.3936338
대전-중구-132,대전광역시,중구, 태평로 35 , 버드내아파트 215동 앞 승강장,대전광역시 중구 태평로 35 버드내아파트 215동 앞 승강장,36.32195533,127.3902045
대전-중구-133,대전광역시,중구, 태평로 15 , 버드내아파트 101동 앞 승강장,대전광역시 중구 태평로 15 버드내아파트 101동 앞 승강장,36.31594873,127.3876272
대전-중구-134,대전광역시,중구, 동서대로 1218 ,앞 태평크리닉 빌딩 앞,대전광역시 중구 동서대로 1218 앞 태평크리닉 빌딩 앞,36.32564233,127.395045
대전-중구-135,대전광역시,중구, 평촌로 93 ,쌍용예가아파트 109동 옆 승강장,대전광역시 중구 평촌로 93 쌍용예가아파트 109동 옆 승강장,36.32263553,127.3981557
대전-중구-136,대전광역시,중구, 수침로 138 ,유등마을아파트 112동 옆 승강장,대전광역시 중구 수침로 138 유등마을아파트 112동 옆 승강장,36.33074023,127.398096
대전-중구-137,대전광역시,중구, 계룡로 865 ,앞 승강장,대전광역시 중구 계룡로 865 앞 승강장,36.32405263,127.4106977
대전-중구-138,대전광역시,중구, 선화로 12-1 , 앞 승강장,대전광역시 중구 선화로 12-1 앞 승강장,36.32510743,127.4110352
대전-중구-139,대전광역시,중구, 동서대로 1330 ,앞 승강장,대전광역시 중구 동서대로 1330 앞 승강장,36.32908783,127.407009
대전-중구-140,대전광역시,중구, 동서대로 1329 ,앞 승강장,대전광역시 중구 동서대로 1329 앞 승강장,36.32924213,127.4069874
대전-중구-141,대전광역시,중구, 동서대로 1304번길 33 ,앞 승강장,대전광역시 중구 동서대로 1304번길 33 앞 승강장,36.32733433,127.4064965
대전-중구-142,대전광역시,중구, 계룡로 832 ,앞 승강장,대전광역시 중구 계룡로 832 앞 승강장,36.32615133,127.4079404
대전-중구-143,대전광역시,중구, 계룡로 846 ,앞 승강장,대전광역시 중구 계룡로 846 앞 승강장,36.32496703,127.4093826
대전-중구-144,대전광역시,중구, 계백로 1719 ,앞 승강장,대전광역시 중구 계백로 1719 앞 승강장,36.32191893,127.4104845
대전-중구-145,대전광역시,중구, 계백로 1685 , 앞 승강장,대전광역시 중구 계백로 1685 앞 승강장,36.32089973,127.4068766
대전-중구-146,대전광역시,중구, 동서대로 1299 ,앞 승강장,대전광역시 중구 동서대로 1299 앞 승강장,36.32832303,127.4039735
대전-중구-147,대전광역시,중구, 오류로 19 ,서대전역 앞,대전광역시 중구 오류로 19 서대전역 앞,36.32238673,127.4047282
대전-중구-148,대전광역시,중구, 계룡로 770, LG유플러스사옥 앞 승강장,대전광역시 중구 계룡로 770 LG유플러스사옥 앞 승강장,36.33037753,127.4027052
대전-중구-149,대전광역시,중구, 계백로 1686번길 16 ,한신아파트 101동 앞,대전광역시 중구 계백로 1686번길 16 한신아파트 101동 앞,36.32064003,127.4064548
대전-중구-150,대전광역시,중구, 게백로1712 , 기동교봉사회관 앞 승강장,대전광역시 중구 게백로1712 기동교봉사회관 앞 승강장,36.32149003,127.4095205
대전-중구-151,대전광역시,중구, 서문로 47 , 대전국제통상고 앞 승강장,대전광역시 중구 서문로 47 대전국제통상고 앞 승강장,36.31324103,127.4083063
대전-중구-152,대전광역시,중구, 서문로 32 ,한밭우성아파트 앞 승강장,대전광역시 중구 서문로 32 한밭우성아파트 앞 승강장,36.30988063,127.4081428
대전-중구-153,대전광역시,중구, 계룡로 910 , KT문화빌딩 앞 승강장,대전광역시 중구 계룡로 910 KT문화빌딩 앞 승강장,36.32132123,127.4138522
대전-중구-154,대전광역시,중구, 계룡로 942 ,대전중앙교회 앞 승강장,대전광역시 중구 계룡로 942 대전중앙교회 앞 승강장,36.31898363,127.4167052
대전-중구-155,대전광역시,중구, 문화로 178 ,앞 승강장,대전광역시 중구 문화로 178 앞 승강장,36.31446023,127.404917
대전-중구-156,대전광역시,중구, 문화로 175 ,앞 승강장,대전광역시 중구 문화로 175 앞 승강장,36.31456443,127.4047246
대전-중구-157,대전광역시,중구, 계룡로 911 ,투썸플레이스 앞,대전광역시 중구 계룡로 911 투썸플레이스 앞,36.32095503,127.4144998
대전-중구-158,대전광역시,중구, 중앙로 16번길 5 ,대전병무청 앞 승강장,대전광역시 중구 중앙로 16번길 5 대전병무청 앞 승강장,36.32274173,127.4145708
대전-중구-159,대전광역시,중구, 문화로 218번길 6 , 앞 승강장,대전광역시 중구 문화로 218번길 6 앞 승강장,36.31595183,127.4090904
대전-중구-160,대전광역시,중구, 서문로 96 ,센트럴파크2단지 앞 승강장,대전광역시 중구 서문로 96 센트럴파크2단지 앞 승강장,36.31627763,127.4095734
대전-중구-161,대전광역시,중구, 문화로 269 ,중앙유치원 앞 승강장,대전광역시 중구 문화로 269 중앙유치원 앞 승강장,36.31771443,127.4133926
대전-중구-162,대전광역시,중구, 산성로 63 ,중구보건소 앞 승강장,대전광역시 중구 산성로 63 중구보건소 앞 승강장,36.30832863,127.3958577
대전-중구-163,대전광역시,중구, 대둔산로 414 ,산성전통시장 입구 앞 승강장,대전광역시 중구 대둔산로 414 산성전통시장 입구 앞 승강장,36.30615503,127.3867658
대전-중구-164,대전광역시,중구, 대둔산로 184번길 8 ,뿌리공원 입구 승강장,대전광역시 중구 대둔산로 184번길 8 뿌리공원 입구 승강장,36.28641503,127.378553
대전-중구-165,대전광역시,중구, 대둔산로 206 ,근영빌딩 앞 승강장,대전광역시 중구 대둔산로 206 근영빌딩 앞 승강장,36.28855003,127.379997
대전-중구-166,대전광역시,중구, 대둔산로 381 ,한빛프라자 앞 승강장,대전광역시 중구 대둔산로 381 한빛프라자 앞 승강장,36.30337833,127.386232
대전-중구-167,대전광역시,중구, 대둔산로 380 ,앞 승강장,대전광역시 중구 대둔산로 380 앞 승강장,36.30318433,127.3862284
대전-중구-168,대전광역시,중구, 유등천동로 340 ,서남부터미널 앞 승강장,대전광역시 중구 유등천동로 340 서남부터미널 앞 승강장,36.31294143,127.3878428
대전-중구-169,대전광역시,중구, 유등천동로 370 ,강변빌라 앞 승강장,대전광역시 중구 유등천동로 370 강변빌라 앞 승강장,36.31480403,127.3873269
대전-중구-170,대전광역시,중구, 대둔산로 125 ,한빛고등학교 입구 승강장,대전광역시 중구 대둔산로 125 한빛고등학교 입구 승강장,36.28315203,127.376087
대전-중구-171,대전광역시,중구, 사정동 138,앞 승강장,대전광역시 중구 사정동 138,36.29273913,127.3980991
대전-중구-172,대전광역시,중구, 대둔산로 130,LPG충전소 앞 승강장,대전광역시 중구 대둔산로 130 LPG충전소 앞 승강장,36.28315203,127.376087
대전-서구-1,대전광역시,서구,둔산서로105,,대전광역시 서구 둔산서로105,36.35590566264991,127.38405074511063
대전-서구-2,대전광역시,서구,갈마로 174,,대전광역시 서구 괴정동135-2,36.33876107549237,127.37545659204564
대전-서구-3,대전광역시,서구,계룡로 662-1,,대전광역시 서구 용문동256-31,36.33752855048157,127.39439451752831
대전-서구-4,대전광역시,서구,도산로 368,,대전광역시 서구 용문동259-1,36.33781663487973,127.39243001415255
대전-서구-5,대전광역시,서구,동서대로 994,서우@201동 앞,대전광역시 서구 내동167(서우@201동 앞),36.33319549280621,127.37283753519976
대전-서구-6,대전광역시,서구,계룡로 570,,대전광역시 서구 괴정동3-3,36.34240623975413,127.387484950181
대전-서구-7,대전광역시,서구,도산로 379,승강장,대전광역시 서구 용문동594-6(승강장),36.337836076352765,127.39254706658431
대전-서구-8,대전광역시,서구,도산로 227,변동오거리 승강장,대전광역시 서구 도산로 227,36.32818683356984,127.38081296186856
대전-서구-9,대전광역시,서구,갈마로 297,,대전광역시 서구 가장동41-10,36.33068273253332,127.38528513901545
대전-서구-10,대전광역시,서구,배재로 162-1,,대전광역시 서구 도마동25-5,36.323032199999815,127.37027800000004
대전-서구-11,대전광역시,서구,가장로 106,래미안@201동앞(승강장),대전광역시 서구 가장로 106,36.33421411441956,127.38789546591475
대전-서구-12,대전광역시,서구,도산로 206,승강장,대전광역시 서구 변동31-9(승강장),36.326497070223404,127.379838608929
대전-서구-13,대전광역시,서구,도산로 161,승강장,대전광역시 서구 변동61-21(승강장),36.32293396468026,127.378084031699
대전-서구-14,대전광역시,서구,동서대로 1001-1,,대전광역시 서구 내동25-8,36.3332158819178,127.37280143414014
대전-서구-15,대전광역시,서구,가장로 106,래미안@ 113동 앞,대전광역시 서구 가장동 래미안@ 113동 앞,36.33231596866155,127.38308845739441
대전-서구-16,대전광역시,서구,배재로 134,,대전광역시 서구 도마1동 210,36.32055884346418,127.37062250178177
대전-서구-17,대전광역시,서구,대덕대로 150 ,경성큰마을 정문,대전광역시 서구 갈마동 경성큰마을 정문,36.34579026970732,127.37473283501117
대전-서구-18,대전광역시,서구,대덕대로162번길 11,,대전광역시 서구 갈마동 1434,36.347647551645565,127.3773234218193
대전-서구-19,대전광역시,서구,갈마로 297,,대전광역시 서구 가장동 40-23,36.33034708680885,127.38302869959074
대전-서구-20,대전광역시,서구,갈마로 330,,대전광역시 서구 가장동 33-6,36.32872653884498,127.38743391031016
대전-서구-21,대전광역시,서구,동서대로1064번길 4,,대전광역시 서구 변동 15-11,36.3298286847323,127.37885798002137
대전-서구-22,대전광역시,서구,대덕대로 325,,대전광역시 서구 월평동243,36.3617604622463,127.37929403246827
대전-서구-23,대전광역시,서구,청사서로 29,,대전광역시 서구 월평동266-1,36.35994602858809,127.37599006481653
대전-서구-24,대전광역시,서구,한밭대로 713,,대전광역시 서구 월평동282-1,36.35900515789267,127.37928344816522
대전-서구-25,대전광역시,서구,청사로 65,,대전광역시 서구 월평동302,36.35991203276513,127.3710095546823
대전-서구-26,대전광역시,서구,청사로 27-9,서부소방서승강장,대전광역시 서구 월평동310(서부소방서승강장),36.359926642031105,127.3662743934773
대전-서구-27,대전광역시,서구,월평동로 45,진달래@승강장,대전광역시 서구 월평동312-1(진달래@승강장),36.359767621883556,127.3652318996439
대전-서구-28,대전광역시,서구,월평중로 55,은뜰공원승강장,대전광역시 서구 월평동313(은뜰공원승강장),36.35869459148416,127.3624804952575
대전-서구-29,대전광역시,서구,월평중로3번길 40,월평육교승강장,대전광역시 서구 월평동951(월평육교승강장),36.3541304934396,127.36162098136647
대전-서구-30,대전광역시,서구,계룡로 356-1,,대전광역시 서구 갈마동293-4,36.35351269165951,127.36768986334397
대전-서구-31,대전광역시,서구,신갈마로 102,갈마@승강장,대전광역시 서구 갈마동407(갈마@승강장),36.342507410534644,127.37122774093648
대전-서구-32,대전광역시,서구,대덕대로135번길 59,한밭고.갈마중입구(갈마아파트 3단지 방면 / 대전광역시 서구 갈마동397-1),대전광역시 서구 갈마동693,36.346757152929676,127.36954908701057
대전-서구-33,대전광역시,서구,갈마로 59,,대전광역시 서구 갈마동361-4,36.34677026171686,127.36938984918733
대전-서구-34,대전광역시,서구,대덕대로 137,,대전광역시 서구 갈마동1129-2,36.345830348598255,127.37488397009298
대전-서구-35,대전광역시,서구,대덕대로 211,,대전광역시 서구 둔산동1036,36.35180727672381,127.37706943669033
대전-서구-36,대전광역시,서구,대덕대로 255,하이마트 앞 승강장,대전광역시 서구 둔산동962(하이마트 앞 승강장),36.355292954064545,127.37936793570535
대전-서구-37,대전광역시,서구,대덕대로 255,하이마트 옆 승강장,대전광역시 서구 둔산동962(하이마트 옆 승강장),36.355889430659275,127.3788315989821
대전-서구-38,대전광역시,서구,둔산북로 41,,대전광역시 서구 둔산동959-2,36.355889430659275,127.3788315989821
대전-서구-39,대전광역시,서구,대덕대로 179,계룡4가,대전광역시 서구 둔산동1110(계룡4가),36.34919318305159,127.37614333587068
대전-서구-40,대전광역시,서구,대덕대로 195,현대생명앞승강장,대전광역시 서구 둔산동1043(현대생명앞승강장),36.35057845904345,127.37808842621587
대전-서구-41,대전광역시,서구,관저북로 52,대자연@정문,대전광역시 서구 관저1동 대자연@정문,36.30685713488014,127.33702821365709
대전-서구-42,대전광역시,서구,관저북로 52,대자연@후문,대전광역시 서구 관저1동 대자연@후문,36.3046934469367,127.33860436604105
대전-서구-43,대전광역시,서구,관저동로 162,건양대입구(건양프라자 앞),대전광역시 서구 관저1동 건양대입구(건양프라자 앞),36.30679621682419,127.34071558738435
대전-서구-44,대전광역시,서구,관저로 84,구봉마을 814동 앞,대전광역시 서구 관저2동 구봉마을 814동 앞,36.298962064975356,127.33212687457298
대전-서구-45,대전광역시,서구,관저로 84,구봉마을 810동 옆,대전광역시 서구 관저2동 구봉마을 810동 옆,36.29632196100518,127.33134530130249
대전-서구-46,대전광역시,서구,관저로 83,신선마을 201동(관저지하도 입구),대전광역시 서구 관저2동 신선마을 201동(관저지하도 입구),36.3012509832575,127.3295536344956
대전-서구-47,대전광역시,서구,관저동로 70,,대전광역시 서구 관저2동 1495,36.298163114158946,127.3406335069176
대전-서구-48,대전광역시,서구,도안동로31번길 11-25,중앙 버스정류장(가수원4거리-목원대입구도로),대전광역시 서구 도안동로31번길 11-25,36.30671504667674,127.35254861102989
대전-서구-49,대전광역시,서구,유등로 135 ,오량실내테니스장 옆,대전광역시 서구 복수동 오량실내체육관 옆,36.30427580622611,127.37925874740637
대전-서구-50,대전광역시,서구,복수서로 50 ,삼익목화@ 102동 옆,대전광역시 서구 복수동 삼익목화@ 102동 옆,36.30944456682532,127.37366752133073
대전-서구-51,대전광역시,서구,배재로 155-7 ,경남@4거리,대전광역시 서구 도마동 경남@4거리,36.322075486839644,127.37019982045386
대전-서구-52,대전광역시,서구,도산로 433,,대전광역시 서구 용문동 228-24,36.34139965972158,127.39735474932294
대전-서구-53,대전광역시,서구,도산로410,,대전광역시 서구 용문동 도산로410,36.33972712014679,127.39516749803147
대전-서구-54,대전광역시,서구,계룡로 655,,대전광역시 서구 용문동 계룡로655,36.33749518,127.3942745
대전-서구-55,대전광역시,서구,대전광역시 서구 탄방동 1450,탄방동 서부농협 승강장,대전광역시 서구 탄방동 서부농협 승강장,36.34235213,127.3875904
대전-서구-56,대전광역시,서구,문정로 20,,대전광역시 서구 탄방동603,36.34594291142422,127.38202451486086
대전-서구-57,대전광역시,서구,둔산남로 190,,대전광역시 서구 탄방동1268,36.348854014967685,127.3984871418729
대전-서구-58,대전광역시,서구,문정로90번길 60,한우리아파트 정거장,대전광역시 서구 탄방동 한우리@,36.34676610000011,127.38867619999992
대전-서구-59,대전광역시,서구,둔산로74번길 20,둔산초등학교 정거장,대전광역시 서구 탄방동 둔산초교,36.348562700000166,127.38299150000003
대전-서구-60,대전광역시,서구,둔산동 1551,법원.검찰청 정류장(32480 사학연금회관방면 / 변호사회관 승강장),대전광역시 서구 둔산동 변호사회관 승강장,36.35435058,127.3903906
대전-서구-61,대전광역시,서구,둔산동 가람@ 5동 앞 승강장,,대전광역시 서구 둔산동 가람@ 5동 앞 승강장,36.357632000000095,127.39632099999979
대전-서구-62,대전광역시,서구,둔산동 목련@ 303동,,대전광역시 서구 둔산동 목련@ 303동,36.35120466496439,127.39210449384865
대전-서구-63,대전광역시,서구,둔산동 국화@승강장,,대전광역시 서구 둔산동 국화@승강장,36.354207299999715,127.39529200000003
대전-서구-64,대전광역시,서구,둔산동 한마루@5동 앞 승강장,,대전광역시 서구 둔산동 한마루@5동 앞 승강장,36.35438730000017,127.39027999999962
대전-서구-65,대전광역시,서구,둔산동 1385 승강장,한밭초등학교 정류장,대전광역시 서구 둔산동 1385 승강장,36.35508071,127.3951167
대전-서구-66,대전광역시,서구,청사로 189 정부대전청사 시외버스정류장(선사유적지 맞은편),정부대전청사서문 정류장 왼쪽(둔산동 청사동문 시외버스승강장),대전광역시 서구 둔산동 청사동문 시외버스승강장,36.36185462,127.379753
대전-서구-67,대전광역시,서구,한밭대로 745,신협중앙회 대전충남지역본부 앞,대전광역시 서구 둔산동 949,36.35788021,127.3817083
대전-서구-68,대전광역시,서구,둔산동 청사동문쪽 시외버스승강장,청사로 189 과 동일,대전광역시 서구 둔산동 청사동문쪽 시외버스승강장,36.36144979999977,127.39022929999949
대전-서구-69,대전광역시,서구,한밭대로 733,둔산경찰서 정류장(32160 정부대전청사서문 방향) 앞,대전광역시 서구 둔산동 950,36.35858006,127.3796618
대전-서구-70,대전광역시,서구,둔산동 2154,가람아프트 정류장(32650 오정농수산물시장 방면 / 둔산동 한밭대로 재뜰4가 (육교쪽)),대전광역시 서구 둔산동 한밭대로 재뜰4가 (육교쪽),36.35754324,127.3962003
대전-서구-71,대전광역시,서구,둔산남로 46,한방병원 승강장,대전광역시 서구 둔산동1256(한방병원 승강장),36.34844809999986,127.3828800999998
대전-서구-72,대전광역시,서구,문정로 17,국민연금서대전지사 정류장(31030 탄방역.대전고용센터 방면),대전광역시 서구 둔산동 1241,36.34594278,127.3819765
대전-서구-73,대전광역시,서구,문정로 56,,대전광역시 서구 탄방동 659,36.346679518124695,127.38556445067954
대전-서구-74,대전광역시,서구,문정로 82,,대전광역시 서구 탄방동 750,36.346756301991164,127.38856812878407
대전-서구-75,대전광역시,서구,둔산서로 95,을지병원 옆,대전광역시 서구 둔산동 1306(을지병원 옆),36.354452472049154,127.38294232535962
대전-서구-76,대전광역시,서구,둔산로 59,,대전광역시 서구 둔산동 1275,36.351427035879205,127.3804637855879
대전-서구-77,대전광역시,서구,둔산동 서구청 옆 승강장,,대전광역시 서구 둔산동 서구청 옆 승강장,36.35584708120581,127.38419250675783
대전-서구-78,대전광역시,서구,둔산동 둔산경찰서 앞 승강장,,대전광역시 서구 둔산동 둔산경찰서 앞 승강장,36.358500574614276,127.37954393960324
대전-서구-79,대전광역시,서구,둔산동 교육청 앞 승강장,,대전광역시 서구 둔산동 교육청 앞 승강장,36.35126657764069,127.3849810262443
대전-서구-80,대전광역시,서구,대덕대로 198,,대전광역시 서구 둔산동1164,36.350524600000206,127.37805529999962
대전-서구-81,대전광역시,서구,둔산로 62,,대전광역시 서구 둔산동1171,36.35129729999977,127.38045589999963
대전-서구-82,대전광역시,서구,둔산동 1820,"청솔아파트 버스정류장(31300, 보라삼거리 방면)",대전광역시 서구 둔산동 1820,36.35123125,127.3973268
대전-서구-83,대전광역시,서구,둔산로 214,둔산동 1820과 중복,대전광역시 서구 둔산동 청솔상가 앞,36.3512300999996,127.39832539999937
대전-서구-84,대전광역시,서구,대덕대로 400,만년동 테크노월드 승강장,대전광역시 서구 만년동 테크노월드 승강장,36.36871865,127.3796967
대전-동구-1,대전광역시,동구,동대전로 319,중앙택시,대전광역시 동구 동대전로 319,36.34898253,127.4433794
대전-동구-2,대전광역시,동구,합내로 75,더치나인,대전광역시 동구 합내로 75,36.35039823,127.4405976
대전-동구-3,대전광역시,동구,우암로 355 건너편,택시회사,대전광역시 동구 우암로 355 건너편,36.35066353,127.4523622
대전-동구-4,대전광역시,동구,우암로 328,연세의원,대전광역시 동구 우암로 328,36.34839543,127.4510798
대전-동구-5,대전광역시,동구,우암로 240,가양치과,대전광역시 동구 우암로 240,36.34409333,127.4429473
대전-동구-6,대전광역시,동구,우암로 279,구기산업건설,대전광역시 동구 우암로 279,36.34604883,127.4471054
대전-동구-7,대전광역시,동구,우암로 286,행복누리,대전광역시 동구 우암로 286,36.34614493,127.4473146
대전-동구-8,대전광역시,동구,동대전로 263,그래그래피자,대전광역시 동구 동대전로 263,36.34451953,127.4465189
대전-동구-9,대전광역시,동구,동대전로 284,연합의원,대전광역시 동구 동대전로 284,36.34632643,127.4452372
대전-동구-10,대전광역시,동구,동대전로 287,고고성자원,대전광역시 동구 동대전로 287,36.34658213,127.444915
대전-동구-11,대전광역시,동구,동대전로 316,석갈비집,대전광역시 동구 동대전로 316,36.34862083,127.4438021
대전-동구-12,대전광역시,동구,우암로 353,왕손족발,대전광역시 동구 우암로 353,36.35048233,127.4522597
대전-동구-13,대전광역시,동구,우암로 325-1,또먹어도돼지,대전광역시 동구 우암로 325-1,36.34839543,127.4510798
대전-동구-14,대전광역시,동구,충정로 136,대주파크빌 103동 앞,대전광역시 동구 충정로 136,36.34278186781539,127.44786714978336
대전-동구-15,대전광역시,동구,대전로 486,빨래방,대전광역시 동구 대전로 486,36.30885463,127.4500828
대전-동구-16,대전광역시,동구,대전로 486,명신주택,대전광역시 동구 대전로 486,36.30885463,127.4500828
대전-동구-17,대전광역시,동구,대전로 473,명성부동산,대전광역시 동구 대전로 473,36.30801633,127.4509042
대전-동구-18,대전광역시,동구,은어송로 47,공인중개사,대전광역시 동구 은어송로 47,36.30567863,127.4549739
대전-동구-19,대전광역시,동구,은어송로 48,새마을금고,대전광역시 동구 은어송로 48,36.3056139,127.4548842
대전-동구-20,대전광역시,동구,동구청로 147,동구청 정문,대전광역시 동구 동구청로 147,36.3114168,127.4555863
대전-동구-21,대전광역시,동구,은어송로 46,엔제리너스커피,대전광역시 동구 은어송로 46,36.3056139,127.4548842
대전-동구-22,대전광역시,동구,계족로 148,아리따움,대전광역시 동구 계족로 148,36.32720105497262,127.44435221853766
대전-동구-23,대전광역시,동구,계족로140번길 46,인테리어,대전광역시 동구 계족로140번길 46,36.3261384,127.4472372
대전-동구-24,대전광역시,동구,동대전로 130-2,,대전광역시 동구 동대전로 130-2,36.33607483,127.4458423
대전-동구-25,대전광역시,동구,동대전로 59-1,정형외과,대전광역시 동구 동대전로 59-1,36.3288971,127.4414134
대전-동구-26,대전광역시,동구,계족로 137,새들뫼 휴먼시아 108동,대전광역시 동구 계족로 137,36.3281118,127.4431528
대전-동구-27,대전광역시,동구,동대전로110번길 164,파랑새식품,대전광역시 동구 동대전로110번길 164,36.33113628133129,127.45138233285356
대전-동구-28,대전광역시,동구,동대전로 62,순수스킨케어,대전광역시 동구 동대전로 62,36.32885853,127.4413031
대전-동구-29,대전광역시,동구,동대전로 99,뮤흐뮤흐,대전광역시 동구 동대전로 99,36.33128743,127.4440853
대전-동구-30,대전광역시,동구,동대전로 88-2,세븐일레븐,대전광역시 동구 동대전로 88-2,36.34286632,127.4479535
대전-동구-31,대전광역시,동구,대전로 248,복권편의점,대전광역시 동구 대전로 248,36.29058323,127.4631447
대전-동구-32,대전광역시,동구,동구청로 35,하늘채 3단지 정문,대전광역시 동구 동구청로 35,36.31141203,127.4555522
대전-동구-33,대전광역시,동구,대전로 874,중앙민속 예술학원,대전광역시 동구 대전로 874,36.33694133,127.4302066
대전-동구-34,대전광역시,동구,우암로 74,명창재단 지업사,대전광역시 동구 우암로 74,36.33675833,127.4266459
대전-동구-35,대전광역시,동구,솔랑길 12,삼성빌라 맞은편,대전광역시 동구 솔랑길 12,36.33943973,127.4334669
대전-동구-36,대전광역시,동구,대전로 896,감골오리,대전광역시 동구 대전로 896,36.33884613,127.4287175
대전-동구-37,대전광역시,동구,동서대로 1498-1,영진카서비스,대전광역시 동구 동서대로 1498-1,36.33981463,127.4202153
대전-동구-38,대전광역시,동구,동서대로1503번길 3,시은펫,대전광역시 동구 동서대로1503번길 3,36.33990563,127.4200515
대전-동구-39,대전광역시,동구,대전로 935,한밭자이아파트 정문,대전광역시 동구 대전로 935,36.34117333,127.4254691
대전-동구-40,대전광역시,동구,우암로 159,부모사랑 요양병원,대전광역시 동구 우암로 159,36.34029143,36.34029143
대전-동구-41,대전광역시,동구,동서대로 1688,빅플러스타워,대전광역시 동구 동서대로 1688,36.34921403,127.4372508
대전-동구-42,대전광역시,동구,계족로 276,천안골동품,대전광역시 동구 계족로 276,36.33707873,127.4385572
대전-동구-43,대전광역시,동구,계족로 123,충남중학교 버스터미널,대전광역시 동구 계족로 123,36.32447313,127.4457161
대전-동구-44,대전광역시,동구,동서대로 1719,갑띠방,대전광역시 동구 동서대로 1719,36.350263,127.43972
대전-동구-45,대전광역시,동구,한밭대로 1269,LG베스트샵,대전광역시 동구 한밭대로 1269,36.3550713,127.4374454
대전-동구-46,대전광역시,동구,동서대로 1673-1,아로마플라워,대전광역시 동구 동서대로 1673-1,36.348765,127.435483
대전-동구-47,대전광역시,동구,동서대로1683번길 33-11,산후조리원,대전광역시 동구 동서대로1683번길 33-11,36.348765,127.435483
대전-동구-48,대전광역시,동구,한밭대로 1231,글로벌자동차유리,대전광역시 동구 한밭대로 1231,36.3575356,127.4345268
대전-동구-49,대전광역시,동구,한밭대로 1291,아우벤 대전점,대전광역시 동구 한밭대로 1291,36.3533887,127.4394476
대전-동구-50,대전광역시,동구,한밭대로 1232,도디치 대전점,대전광역시 동구 한밭대로 1232,36.35345627,127.4395233
대전-동구-51,대전광역시,동구,대전로 771,주앙스파찜질방,대전광역시 동구 대전로 771,36.3283907,127.4341814
대전-동구-52,대전광역시,동구,동대전로 135,파리바게뜨,대전광역시 동구 동대전로 135,36.334164,36.334164
대전-동구-53,대전광역시,동구,동대전로 158-3,곰브라더스,대전광역시 동구 동대전로 158-3,36.33607483,127.4470308
대전-동구-54,대전광역시,동구,대전로 823,한송헤어샵,대전광역시 동구 대전로 823,36.33294123,127.4317913
대전-동구-55,대전광역시,동구,대전로 818,중부서점,대전광역시 동구 대전로 818,36.33264093,127.4320602
대전-동구-56,대전광역시,동구,대전로 829,더블유에스 제이점,대전광역시 동구 대전로 829,36.3333083,127.4316344
대전-동구-57,대전광역시,동구,대전로 814,김밥천국,대전광역시 동구 대전로 814,36.3320939,127.4322922
대전-동구-58,대전광역시,동구,대전로 832-2,진약국,대전광역시 동구 대전로 832-2,36.3333083,127.4316344
대전-동구-59,대전광역시,동구,중앙로 185,우리은행,대전광역시 동구 중앙로 185,36.3303160947452,127.4299034428976
대전-동구-60,대전광역시,동구,중앙로193번길 4,장준서아카데미,대전광역시 동구 중앙로193번길 4,36.33067513,36.33067513
대전-동구-61,대전광역시,동구,중앙로 206,다온제이,대전광역시 동구 중앙로 206,36.33090223,127.4319351
대전-동구-62,대전광역시,동구,대전로 577,청원종합장식,대전광역시 동구 대전로 577,36.31242390000022,127.44181439999929
대전-동구-63,대전광역시,동구,대전로 580,가가가 노래방기계대여,대전광역시 동구 대전로 580,36.31263093,127.4415524
대전-동구-64,대전광역시,동구,대전로 509,한국토지주택 충남본부,대전광역시 동구 대전로 509,36.31055993,127.4487243
대전-동구-65,대전광역시,동구,대전로 502,카로드,대전광역시 동구 대전로 502,36.30877973,127.4501596
대전-동구-66,대전광역시,동구,옥천로 190,GS25,대전광역시 동구 옥천로 190,36.31798743,127.4616303
대전-동구-67,대전광역시,동구,옥천로 157,판암역 3번출구,대전광역시 동구 옥천로 157,36.31711503,127.4587048
대전-동구-68,대전광역시,동구,옥천로 152-9,판암역 2번출구,대전광역시 동구 옥천로 152-9,36.31690873,36.31690873
대전-동구-69,대전광역시,동구,대전로 1012,친환경페인트,대전광역시 동구 대전로 1012,36.34599099999996,127.4188208999998
대전-동구-70,대전광역시,동구,계족로 42-1,공터,대전광역시 동구 계족로 42-1,36.3177363,127.4419558
대전-동구-71,대전광역시,동구,계족로 37,영성일약국,대전광역시 동구 계족로 37,36.31773629999959,127.4419557999993
대전-동구-72,대전광역시,동구,대전로 621-1,예성지갑,대전광역시 동구 대전로 621-1,36.3161289,127.4401344
대전-동구-73,대전광역시,동구,대전로 646,효동현대아파트 106동 앞,대전광역시 동구 대전로 646,36.3179089,127.4394904
대전-동구-74,대전광역시,동구,대학로 91,고향촌칼국수,대전광역시 동구 대학로 91,36.3377609,127.4574239
대전-동구-75,대전광역시,동구,대학로 62-67,스마트빌,대전광역시 동구 대학로 62-67,36.3381326,127.4575607
대전-동구-76,대전광역시,동구,대학로 43,전화위복,대전광역시 동구 대학로 43,36.3338267,127.4557214
대전-동구-77,대전광역시,동구,대학로 62-67,스마트빌,대전광역시 동구 대학로 62-67,36.3381326,127.4575607
대전-동구-78,대전광역시,동구,용운로 89,씨케이건설,대전광역시 동구 용운로 89,36.327385,127.4523794
대전-동구-79,대전광역시,동구,산내로 1280-1,원메밀막국수,대전광역시 동구 산내로 1280-1,36.2779377,127.4692952
대전-대덕구-1,대전광역시,대덕구,대화동 16-135,"대화동 육교, 오정동방면",대전광역시 대덕구 대화동 16-135,36.36626944,127.4190956
대전-대덕구-2,대전광역시,대덕구,대화동 37-9,"원명학교, 공단방면",대전광역시 대덕구 대화동 37-9,36.367827,127.415645
대전-대덕구-3,대전광역시,대덕구,대화동 530-4,"동아연필, 공구상가 후문방향",대전광역시 대덕구 대화동 530-4,36.368271,127.401667
대전-대덕구-4,대전광역시,대덕구,대화동 40-47,"대화동행정복지센터, 아모레퍼시픽 앞",대전광역시 대덕구 대화동 40-47,36.367286,127.411916
대전-대덕구-5,대전광역시,대덕구,대화동 4-1,"대화공단삼거리, 주유소 앞",대전광역시 대덕구 대화동 4-1,36.368182,127.420122
대전-대덕구-6,대전광역시,대덕구,대화동 561-10,"대화공단 삼거리, 주유소 건너편",대전광역시 대덕구 대화동 561-10,36.368496,127.419852
대전-대덕구-7,대전광역시,대덕구,대화동 40-81,"대화동행정복지센터, CU편의점 앞",대전광역시 대덕구 대화동 40-81,36.367354899999945,127.41175659999989
대전-대덕구-8,대전광역시,대덕구,신탄진로 232,와동농협와동지소 앞,대전광역시 대덕구 신탄진로 232,36.401110599999846,127.4228264999996
대전-대덕구-9,대전광역시,대덕구,오정동 275-8,"오정우체국, 대덕구청방면",대전광역시 대덕구 오정동 275-8,36.354486699999995,127.41508799999963
대전-대덕구-10,대전광역시,대덕구,오정동 243-5,"오정주민센터, 세종방면 BRT",대전광역시 대덕구 오정동 243-5,36.35162790000011,127.4116072000001
대전-대덕구-11,대전광역시,대덕구,오정동 10-106,"대전병원, 대전역방면",대전광역시 대덕구 오정동 10-106,36.36234279999974,127.41787939999963
대전-대덕구-12,대전광역시,대덕구,오정동 172-1,"한남대 정문, 한남오거리방면",대전광역시 대덕구 오정동 172-1,36.35141330000008,127.42255640000016
대전-대덕구-13,대전광역시,대덕구,오정동 172-7,"한남대학교, 평생교육원 앞",대전광역시 대덕구 오정동 172-7,36.35154299999973,127.42215500000022
대전-대덕구-14,대전광역시,대덕구,오정동 175-48,"대전신학대학교, 한남프라자 안경 앞",대전광역시 대덕구 오정동 175-48,36.351077600000075,127.42405249999949
대전-대덕구-15,대전광역시,대덕구,오정동 236-1,"한남대학교, 한남육교 밑 오정동방면",대전광역시 대덕구 오정동 236-1,36.35083240000028,127.41928969999994
대전-대덕구-16,대전광역시,대덕구,오정동 448-10,"한남오거리, 오정우체국방면",대전광역시 대덕구 오정동 448-10,36.34929649999963,127.41589680000006
대전-대덕구-17,대전광역시,대덕구,오정동 448-11,"한남오거리, 대덕구청방면",대전광역시 대덕구 오정동 448-11,36.3491656857275,127.41675582388737
대전-대덕구-18,대전광역시,대덕구,오정동 707,"신동아아파트, 농수산시장방면",대전광역시 대덕구 오정동 707,36.358129899999675,127.40949129999983
대전-대덕구-19,대전광역시,대덕구,오정동 707,"오정농수산시장, 둔산동방면",대전광역시 대덕구 오정동 707,36.35743379999997,127.40698450000001
대전-대덕구-20,대전광역시,대덕구,오정동 707,"오정농수산시장, 수정타운아파트삼거리방면",대전광역시 대덕구 오정동 707,36.358129899999675,127.40949129999983
대전-대덕구-21,대전광역시,대덕구,오정동 707,"오정농수산시장, 중리지구대방면",대전광역시 대덕구 오정동 707,36.3582605000002,127.41247389999947
대전-대덕구-22,대전광역시,대덕구,오정동 707,"화정초등학교, 운암빌딩 건너편",대전광역시 대덕구 오정동 707,36.357459199999916,127.40801160000008
대전-대덕구-23,대전광역시,대덕구,오정동 708,"한남오거리, 대덕구청방면",대전광역시 대덕구 오정동 708,36.354486699999995,127.41508799999963
대전-대덕구-24,대전광역시,대덕구,오정동 708,"오정네거리, 장원순대 앞",대전광역시 대덕구 오정동 708,36.35758550000009,127.41529309999997
대전-대덕구-25,대전광역시,대덕구,오정동 715,"농수산오거리, 대전역방면 BRT",대전광역시 대덕구 오정동 715,36.354969870294234,127.40742832588705
대전-대덕구-26,대전광역시,대덕구,오정동 715,"농수산오거리, 둔산동방면 BRT",대전광역시 대덕구 오정동 715,36.35568459999965,127.40680829999981
대전-대덕구-27,대전광역시,대덕구,오정동 726,"오정동 주민센터, 대전역방면 BRT",대전광역시 대덕구 오정동 726,36.352409599999845,127.41085230000012
대전-대덕구-28,대전광역시,대덕구,오정동 370-10,"한남오거리, 대전역방면 BRT",대전광역시 대덕구 오정동 370-10,36.35019640000001,127.41359039999975
대전-대덕구-29,대전광역시,대덕구,오정동 387-4,"한남오거리, 오정동행정복지센터 방면 BRT",대전광역시 대덕구 오정동 387-4,36.34929008809117,127.41596831887034
대전-대덕구-30,대전광역시,대덕구,오정동 734-1,"한남오거리, 한남대학교방면",대전광역시 대덕구 오정동 734-1,36.34929649999963,127.41589680000006
대전-대덕구-31,대전광역시,대덕구,오정동 735,"한남대학교, 한남육교 밑 홍도지하보도방면",대전광역시 대덕구 오정동 735,36.35092349999959,127.41924659999951
대전-대덕구-32,대전광역시,대덕구,오정동 753,"대덕구청, 대전역방면 BRT",대전광역시 대덕구 오정동 753,36.34666500000027,127.41794590000019
대전-대덕구-33,대전광역시,대덕구,와동 39-16,"와동초등학교, 들말 신대차고지방면",대전광역시 대덕구 와동 39-16,36.40016690000001,127.42305839999948
대전-대덕구-34,대전광역시,대덕구,와동 375,"와동 현대아파트, 신탄진방면",대전광역시 대덕구 와동 375,36.40029228,127.4231216
대전-대덕구-35,대전광역시,대덕구,읍내동 109-4,"대한통운 종점, 읍내동현대아파트방면",대전광역시 대덕구 읍내동 109-4,36.38361526,127.4255839
대전-대덕구-36,대전광역시,대덕구,읍내동 168-10,"대한통운 버스정류장, 금남고속 앞, 회덕동주민센터방면",대전광역시 대덕구 읍내동 168-10,36.38041072,127.4237064
대전-대덕구-37,대전광역시,대덕구,읍내동 227-6,"회덕동주민센터, 읍내네거리방면",대전광역시 대덕구 읍내동 227-6,36.37661001806996,127.4209088087082
대전-대덕구-38,대전광역시,대덕구,읍내동 317,회덕초등학교 앞,대전광역시 대덕구 읍내동 317,36.374484998738595,127.42031067609788
대전-대덕구-39,대전광역시,대덕구,읍내동 482-1,"읍내동 현대아파트, 동아교재방면",대전광역시 대덕구 읍내동 482-1,36.374770065678995,127.4182614684105
대전-대덕구-40,대전광역시,대덕구,읍내동 482-19,"당아래, 중리동방면",대전광역시 대덕구 읍내동 482-19,36.37470000000029,127.4181867999999
대전-대덕구-41,대전광역시,대덕구,읍내동 550,"읍내네거리, 대화공단삼거리방면",대전광역시 대덕구 읍내동 550,36.372382699999925,127.42016989999998
대전-대덕구-42,대전광역시,대덕구,읍내동 91-7,"대한통운, 대한통운종점방면",대전광역시 대덕구 읍내동 91-7,36.38063329999967,127.42453459999938
대전-대덕구-43,대전광역시,대덕구,읍내동 579,"회덕동주민센터, 대한통운방면",대전광역시 대덕구 읍내동 579,36.37644729999977,127.42095659999991
대전-대덕구-44,대전광역시,대덕구,읍내동 71-1,"읍내동 현대아파트, 대전지방국세청방면",대전광역시 대덕구 읍내동 71-1,36.37800239999997,127.42684789999981
대전-대덕구-45,대전광역시,대덕구,신대동 209-1,신대주공아파트,대전광역시 대덕구 신대동 209-1,36.40018879999991,127.42289320000017
대전-대덕구-46,대전광역시,대덕구,신대동 366-1,"와동초등학교, 와동현대아파트방면",대전광역시 대덕구 신대동 366-1,36.396299259769464,127.42249604379943
대전-대덕구-47,대전광역시,대덕구,송촌동 367,"한신휴플러스, 적십자혈액원 방면",대전광역시 대덕구 송촌동 367,36.352165200000165,127.44284169999938
대전-대덕구-48,대전광역시,대덕구,송촌동 367,"적십자혈액원, 동부네거리방면",대전광역시 대덕구 송촌동 367,36.352813000000125,127.44291849999942
대전-대덕구-49,대전광역시,대덕구,송촌동 367,"가양중학교입구, 한신휴플러스방면",대전광역시 대덕구 송촌동 367,36.357595808390705,127.43456288073173
대전-대덕구-50,대전광역시,대덕구,송촌동 523,"송촌고등학교, 금성백조아파트방면",대전광역시 대덕구 송촌동 523,36.36204880000008,127.44490849999964
대전-대덕구-51,대전광역시,대덕구,송촌동 523,"송촌고등학교, 동춘당방면",대전광역시 대덕구 송촌동 523,36.36198310000022,127.44499849999987
대전-대덕구-52,대전광역시,대덕구,송촌동 523,"동춘당, 선비마을3단지방면",대전광역시 대덕구 송촌동 523,36.3650663999999,127.44013359999951
대전-대덕구-53,대전광역시,대덕구,송촌동 523,"선비마을입구, 선비마을3단지방면",대전광역시 대덕구 송촌동 523,36.3677423000001,127.43653429999964
대전-대덕구-54,대전광역시,대덕구,법동 213,"그린아파트, 선비마을입구방면",대전광역시 대덕구 법동 213,36.368100399999975,127.43441150000011
대전-대덕구-55,대전광역시,대덕구,송촌동 523,"선비마을입구, 소월아파트방면",대전광역시 대덕구 송촌동 523,36.36786439999974,127.43634819999997
대전-대덕구-56,대전광역시,대덕구,송촌동 523,"동춘당, 송촌고등학교방면",대전광역시 대덕구 송촌동 523,36.36198310000022,127.44499849999987
대전-대덕구-57,대전광역시,대덕구,송촌동 523,"선비마을4단지, 송촌고등학교방면",대전광역시 대덕구 송촌동 523,36.366620000000005,127.44527499999982
대전-대덕구-58,대전광역시,대덕구,법동 191-1,"소월아파트, 그린아파트방면",대전광역시 대덕구 법동 191-1,36.37053989999972,127.4315024999994
대전-대덕구-59,대전광역시,대덕구,법동 213,"소월아파트, 한마음아파트방면",대전광역시 대덕구 법동 213,36.37053989999972,127.4315024999994
대전-대덕구-60,대전광역시,대덕구,법동 213,"보람아파트, 그린아파트방면",대전광역시 대덕구 법동 213,36.36889980000015,127.43351349999952
대전-대덕구-61,대전광역시,대덕구,법동 371,"유원아파트, 삼정하이츠방면",대전광역시 대덕구 법동 371,36.36920573053697,127.42748219974459
대전-대덕구-62,대전광역시,대덕구,법동 371,"안산도서관, 중리시장방면",대전광역시 대덕구 법동 371,36.36882329999996,127.4275836
대전-대덕구-63,대전광역시,대덕구,법동 372,"대전지방국세청, 법동전통시장방면",대전광역시 대덕구 법동 372,36.36791513053812,127.42967419974265
대전-대덕구-64,대전광역시,대덕구,법동 372,"보람아파트, 동부소방서방면",대전광역시 대덕구 법동 372,36.37222443053556,127.42848339974297
대전-대덕구-65,대전광역시,대덕구,법동 372,"대전지방국세청, 보람아파트방면",대전광역시 대덕구 법동 372,36.37017163053707,127.42920739974355
대전-대덕구-66,대전광역시,대덕구,법동 372,"대덕소방서, 읍내동현대아파트방면",대전광역시 대덕구 법동 372,36.373286330534796,127.42834849974393
대전-대덕구-67,대전광역시,대덕구,법동 374,"중리시장, 스포츠프라자삼거리방면",대전광역시 대덕구 법동 374,36.36661743053892,127.42600319974444
대전-대덕구-68,대전광역시,대덕구,비래동 146-2,"가양비래공원, 명석고등학교 방면",대전광역시 대덕구 비래동 146-2,36.356987012039895,127.45384893200026
대전-대덕구-69,대전광역시,대덕구,비래동 520,"한신휴플러스, 비래동노인회관방면",대전광역시 대덕구 비래동 520,36.35693623054409,127.44528479973386
대전-대덕구-70,대전광역시,대덕구,비래동 540,"삼호아파트, 평화아파트방면",대전광역시 대덕구 비래동 540,36.35450933054582,127.44799799973276
대전-대덕구-71,대전광역시,대덕구,중리동 165-20,,대전광역시 대덕구 중리동 165-20,36.36083433619607,127.42714427527015
대전-대덕구-72,대전광역시,대덕구,중리동 174-1,만남어린이공원 앞,대전광역시 대덕구 중리동 174-1,36.36117772666891,127.42989596606832
대전-대덕구-73,대전광역시,대덕구,중리동 181-1,,대전광역시 대덕구 중리동 181-1,36.36133278192336,127.4308817623269
대전-대덕구-74,대전광역시,대덕구,중리동 207-5,,대전광역시 대덕구 중리동 207-5,36.3610128,127.4282807
대전-대덕구-75,대전광역시,대덕구,중리동 275-29,럭키스포츠프라자방면,대전광역시 대덕구 중리동 275-29,36.3618628,127.4215224
대전-대덕구-76,대전광역시,대덕구,중리동 275-29,신동아아파트방면,대전광역시 대덕구 중리동 275-29,36.3617697,127.4214859
대전-대덕구-77,대전광역시,대덕구,중리동 418,"중리근린공원, 중리시장방면",대전광역시 대덕구 중리동 418,36.36316633,127.4251688
대전-대덕구-78,대전광역시,대덕구,중리동 418,"중리동주민센터, 한남병원방면",대전광역시 대덕구 중리동 418,36.36047203,127.425278
대전-대덕구-79,대전광역시,대덕구,중리동 424,"중리네거리, 용전동주민센터방면",대전광역시 대덕구 중리동 424,36.35872703,127.42249
대전-대덕구-80,대전광역시,대덕구,중리동 424,"중리지구대, 한남대북문방면",대전광역시 대덕구 중리동 424,36.35893243,127.4210795
대전-대덕구-81,대전광역시,대덕구,중리동 448,"중리지구대, 오정네거리방면",대전광역시 대덕구 중리동 448,36.35891023,127.4211126
대전-대덕구-82,대전광역시,대덕구,중리동 450,"중리동, 법동전통시장방면",대전광역시 대덕구 중리동 450,36.3666117,127.4300371
대전-대덕구-83,대전광역시,대덕구,중리동 450,"법동전통시장, 보람아파트방면",대전광역시 대덕구 중리동 450,36.3667275,127.4301727
대전-대덕구-84,대전광역시,대덕구,중리동 450,"법동전통시장, 중리동방면",대전광역시 대덕구 중리동 450,36.3631271,127.4311737
대전-대덕구-85,대전광역시,대덕구,중리동 450,"중리동, 한국전력공사방면",대전광역시 대덕구 중리동 450,36.36272983,127.4311472
대전-대덕구-86,대전광역시,대덕구,중리동 469,"중리네거리, 증산도교육문회회관방면",대전광역시 대덕구 중리동 469,36.3589289,127.4209589
대전-대덕구-87,대전광역시,대덕구,평촌동 544,"평촌동, 신탄진한일병원방면",대전광역시 대덕구 평촌동 544,36.43582793,127.4254057
대전-대덕구-88,대전광역시,대덕구,평촌동 544,"덕암동주민센터, 평촌동방면",대전광역시 대덕구 평촌동 544,36.43805253,127.426264
대전-대덕구-89,대전광역시,대덕구,덕암동 336,"대전이문고, 덕암동방면",대전광역시 대덕구 덕암동 336,36.44485873,127.4243049
대전-대덕구-90,대전광역시,대덕구,덕암동 336,"덕암동, 보건소방면",대전광역시 대덕구 덕암동 336,36.44634033,127.4221293
대전-대덕구-91,대전광역시,대덕구,덕암동45-10,"신탄중앙중학교, 대덕구보건소방면",대전광역시 대덕구 덕암동45-10,36.441302952567185,127.42451438061049
대전-대덕구-92,대전광역시,대덕구,목상동 234,"한국타이어, 목상동주민센터방면",대전광역시 대덕구 목상동 234,36.44524383,127.415281
대전-대덕구-93,대전광역시,대덕구,목상동 185-1,"목상동주민센터,한국교통안전공단방면",대전광역시 대덕구 목상동 185-1,36.44936053,127.4129461
대전-대덕구-94,대전광역시,대덕구,목상동 91-4,대덕경찰서방면한국타이어후문방면,대전광역시 대덕구 목상동 91-4,36.44872933,127.4112087
대전-대덕구-95,대전광역시,대덕구,문평동 92,"효성신탄진공장, 한국교통안전공단방면",대전광역시 대덕구 문평동 92,36.44441183,127.4039939
대전-대덕구-96,대전광역시,대덕구,상서동 279-1,"상서삼거리, 선바위방면",대전광역시 대덕구 상서동 279-1,36.42980993,127.4215961
대전-대덕구-97,대전광역시,대덕구,상서동 279-1,"평촌동, 신탄진한일병원방면",대전광역시 대덕구 상서동 279-1,36.43013953,127.4219643
대전-대덕구-98,대전광역시,대덕구,상서동 282,"상서삼거리, 신탄진한일병원방면",대전광역시 대덕구 상서동 282,36.43013953,127.4219643
대전-대덕구-99,대전광역시,대덕구,석봉동 747,"신탄진시장, 금강엑슬루타워방면",대전광역시 대덕구 석봉동 747,36.45050763,127.4254152
대전-대덕구-100,대전광역시,대덕구,석봉동 422-7,"신탄진시장, 신탄진역방면",대전광역시 대덕구 석봉동 422-7,36.4504878,127.4252961
대전-대덕구-101,대전광역시,대덕구,신탄진동 143-18,"신탄진역, 신탄진동행정복지센터방면",대전광역시 대덕구 신탄진동 143-18,36.4493321,127.4292115
대전-대덕구-102,대전광역시,대덕구,신탄진동 22-1,"새여울아파트, 용정초맞은편",대전광역시 대덕구 신탄진동 22-1,36.4534504,127.435968
대전-대덕구-103,대전광역시,대덕구,신탄진동 733,"신탄진역, 남경마을방면",대전광역시 대덕구 신탄진동 733,36.4493321,127.4292115
대전-대덕구-104,대전광역시,대덕구,신탄진동 733,"남경마을, 덕암동주민센터방면",대전광역시 대덕구 신탄진동 733,36.4496405,127.4290563
대전-대덕구-105,대전광역시,대덕구,신탄진동 735,"신탄진고등학교, 석봉초등학교방면",대전광역시 대덕구 신탄진동 735,36.4502827,127.435357